      2.10          N: GNSS NAV DATA                        RINEX VERSION / TYPE
fic2rin                                 07/05/2018 00:08:33 PGM / RUN BY / DATE
                                                            END OF HEADER
15 18  7  4 20  0  0.0-3.514089621603e-04 6.821210263297e-13 0.000000000000e+00
    1.300000000000e+01 3.518750000000e+01 5.117356015561e-09-2.896016435783e+00
    1.737847924232e-06 1.033011812251e-02 9.300187230110e-06 5.153771461487e+03
    3.312000000000e+05 1.117587089539e-08-1.370656728006e+00-5.401670932770e-08
    9.278384210859e-01 1.819375000000e+02 6.843187281647e-01-8.159625595444e-09
    2.528676758108e-10 1.000000000000e+00 2.008000000000e+03 0.000000000000e+00
    2.400000000000e+00 0.000000000000e+00-1.117587089539e-08 1.300000000000e+01
    3.240060000000e+05 4.000000000000e+00
14 18  7  4 20  0  0.0-9.756954386830e-05-1.136868377216e-13 0.000000000000e+00
    7.900000000000e+01 2.903125000000e+01 4.378039505776e-09-2.344856153859e+00
    1.544132828712e-06 1.003089442383e-02 9.000301361084e-06 5.153600816727e+03
    3.312000000000e+05 1.229345798492e-07-1.208782567697e+00-9.499490261078e-08
    9.605912404580e-01 2.066875000000e+02-1.948325527327e+00-7.758894617676e-09
    2.600108304947e-10 1.000000000000e+00 2.008000000000e+03 0.000000000000e+00
    2.400000000000e+00 0.000000000000e+00-9.778887033463e-09 7.900000000000e+01
    3.240060000000e+05 4.000000000000e+00
13 18  7  4 20  0  0.0-9.281747043133e-05 4.547473508865e-13 0.000000000000e+00
    7.600000000000e+01 3.918750000000e+01 4.260534611225e-09 2.948706217267e+00
    2.127140760422e-06 3.297967487015e-03 8.361414074898e-06 5.153660825729e+03
    3.312000000000e+05-7.078051567078e-08-1.166617760575e+00 9.872019290924e-08
    9.680532286284e-01 2.227187500000e+02 1.545243949247e+00-7.781395554930e-09
    1.942938074027e-10 1.000000000000e+00 2.008000000000e+03 0.000000000000e+00
    2.400000000000e+00 0.000000000000e+00-1.117587089539e-08 7.600000000000e+01
    3.240060000000e+05 4.000000000000e+00
11 18  7  4 20  0  0.0-7.314556278288e-04 1.477928890381e-12 0.000000000000e+00
    9.000000000000e+01 3.375000000000e+00 6.092396629917e-09 1.419647559162e+00
   -1.490116119385e-07 1.696426479612e-02 4.068017005920e-06 5.153640323639e+03
    3.312000000000e+05 9.499490261078e-08 2.478592306450e+00-4.246830940247e-07
    9.059053716235e-01 2.702812500000e+02 1.777244739320e+00-8.906442417648e-09
    1.975082270104e-10 1.000000000000e+00 2.008000000000e+03 0.000000000000e+00
    2.400000000000e+00 0.000000000000e+00-1.210719347000e-08 9.000000000000e+01
    3.240060000000e+05 4.000000000000e+00
29 18  7  4 20  0  0.0 4.207566380501e-04-6.821210263297e-12 0.000000000000e+00
    1.300000000000e+01 5.262500000000e+01 4.155887395106e-09-1.197190069829e+00
    2.851709723473e-06 8.457071380690e-04 7.079914212227e-06 5.153671852112e+03
    3.312000000000e+05 2.607703208923e-08 1.916587494728e+00 1.117587089539e-08
    9.840431836342e-01 2.590312500000e+02 1.335737212851e+00-7.941402219850e-09
    3.367997433469e-10 1.000000000000e+00 2.008000000000e+03 0.000000000000e+00
    2.400000000000e+00 0.000000000000e+00-1.024454832077e-08 1.300000000000e+01
    3.240060000000e+05 4.000000000000e+00
28 18  7  4 20  0  0.0 7.287724874914e-04 2.955857780762e-12 0.000000000000e+00
    1.700000000000e+01 1.909375000000e+01 3.897662353282e-09-1.116009715907e+00
    1.257285475731e-06 1.946718001273e-02 8.963048458099e-06 5.153687162399e+03
    3.312000000000e+05-3.408640623093e-07 8.947444184965e-01 3.129243850708e-07
    9.856337018171e-01 2.274062500000e+02-1.517910302165e+00-7.974260731396e-09
   -5.214502919263e-11 1.000000000000e+00 2.008000000000e+03 0.000000000000e+00
    2.400000000000e+00 0.000000000000e+00-1.117587089539e-08 1.700000000000e+01
    3.240060000000e+05 4.000000000000e+00
23 18  7  4 20  0  0.0-2.149706706405e-04 5.684341886081e-13 0.000000000000e+00
    3.800000000000e+01 2.040625000000e+01 4.813414783761e-09 2.922032002453e+00
    9.257346391678e-07 1.263953710441e-02 8.936971426010e-06 5.153772766113e+03
    3.312000000000e+05 0.000000000000e+00-1.300923416934e+00-1.695007085800e-07
    9.431305305208e-01 1.952187500000e+02-2.346417641896e+00-7.933544749698e-09
    1.521491947675e-10 1.000000000000e+00 2.008000000000e+03 0.000000000000e+00
    2.400000000000e+00 0.000000000000e+00-2.002343535423e-08 3.800000000000e+01
    3.240060000000e+05 4.000000000000e+00
21 18  7  4 20  0  0.0-3.722202964127e-04 5.343281372916e-12 0.000000000000e+00
    1.900000000000e+01-2.950000000000e+01 5.457370178516e-09 2.931384143687e-01
   -1.464039087296e-06 2.434770250693e-02 4.583969712257e-06 5.153672576904e+03
    3.312000000000e+05-3.185123205185e-07 2.852720033731e+00-1.266598701477e-07
    9.446281036665e-01 2.901562500000e+02-1.546662968081e+00-9.098950436379e-09
   -5.178787145843e-11 1.000000000000e+00 2.008000000000e+03 0.000000000000e+00
    2.400000000000e+00 0.000000000000e+00-1.024454832077e-08 1.900000000000e+01
    3.240060000000e+05 4.000000000000e+00
27 18  7  4 20  0  0.0 3.628209233284e-04-2.046363078989e-12 0.000000000000e+00
    1.900000000000e+01 4.162500000000e+01 4.208032424298e-09-2.020541879977e+00
    1.957640051842e-06 6.005264469422e-03 7.467344403267e-06 5.153689825058e+03
    3.312000000000e+05 1.005828380585e-07 1.851629511070e+00-9.499490261078e-08
    9.774327264307e-01 2.435312500000e+02 4.484792132565e-01-7.957474317889e-09
    3.557291032593e-10 1.000000000000e+00 2.008000000000e+03 0.000000000000e+00
    2.400000000000e+00 0.000000000000e+00 1.396983861923e-09 1.900000000000e+01
    3.240060000000e+05 4.000000000000e+00
24 18  7  4 20  0  0.0-5.212519317865e-05-5.684341886081e-13 0.000000000000e+00
    4.400000000000e+01 1.531250000000e+01 5.093426447370e-09 2.387315949635e+00
    7.990747690201e-07 6.987020955421e-03 5.558133125305e-06 5.153636432648e+03
    3.312000000000e+05-1.061707735062e-07-2.817292215986e-01-8.940696716309e-08
    9.414849056768e-01 2.611875000000e+02 5.398876393901e-01-8.384634967987e-09
   -5.785955293977e-11 1.000000000000e+00 2.008000000000e+03 0.000000000000e+00
    2.400000000000e+00 0.000000000000e+00 2.793967723846e-09 4.400000000000e+01
    3.240060000000e+05 4.000000000000e+00
19 18  7  4 20  0  0.0-4.231217317283e-04 3.069544618484e-12 0.000000000000e+00
    7.900000000000e+01 3.950000000000e+01 4.250891352402e-09 8.020004461720e-01
    2.134591341019e-06 9.899883414619e-03 6.916001439095e-06 5.153718503952e+03
    3.312000000000e+05-1.434236764908e-07 1.952857651926e+00 5.587935447693e-08
    9.803051719310e-01 2.595312500000e+02 1.223616085961e+00-8.137838973658e-09
    1.771502361613e-10 1.000000000000e+00 2.008000000000e+03 0.000000000000e+00
    2.400000000000e+00 0.000000000000e+00-1.536682248116e-08 7.900000000000e+01
    3.240060000000e+05 4.000000000000e+00
17 18  7  4 20  0  0.0-8.162483572960e-05 3.751665644813e-12 0.000000000000e+00
    5.300000000000e+01 3.871875000000e+01 4.079455639988e-09-2.082277668069e+00
    2.164393663406e-06 1.237108057830e-02 6.560236215591e-06 5.153583166122e+03
    3.312000000000e+05 1.564621925354e-07 1.905928953020e+00 9.126961231232e-08
    9.827429917845e-01 2.615312500000e+02-1.777479755646e+00-7.741036730966e-09
    3.189418566371e-10 1.000000000000e+00 2.008000000000e+03 0.000000000000e+00
    2.400000000000e+00 0.000000000000e+00-1.117587089539e-08 5.300000000000e+01
    3.240060000000e+05 4.000000000000e+00
32 18  7  4 20  0  0.0-4.818164743483e-04 7.503331289627e-12 0.000000000000e+00
    9.800000000000e+01 2.737500000000e+01 4.552332480063e-09-1.313918455326e+00
    1.372769474983e-06 2.258567837998e-03 9.395182132721e-06 5.153679952621e+03
    3.312000000000e+05 1.378357410431e-07-1.293780083042e+00-6.519258022308e-08
    9.566767393919e-01 1.998125000000e+02-2.529374912355e+00-7.983546832485e-09
    1.632210845276e-10 1.000000000000e+00 2.008000000000e+03 0.000000000000e+00
    3.400000000000e+00 0.000000000000e+00 4.656612873077e-10 9.800000000000e+01
    3.240060000000e+05 4.000000000000e+00
26 18  7  4 20  0  0.0-9.439233690500e-05 1.216449163621e-11 0.000000000000e+00
    6.200000000000e+01 3.125000000000e-01 4.551975322329e-09-1.621313544731e-01
    1.378357410431e-07 2.787397708744e-03 8.663162589073e-06 5.153685155869e+03
    3.312000000000e+05 4.470348358154e-08 7.887540155479e-01-5.029141902924e-08
    9.555146338427e-01 2.079062500000e+02 1.142443930232e-01-8.163554330520e-09
   -1.882221259213e-10 1.000000000000e+00 2.008000000000e+03 0.000000000000e+00
    2.400000000000e+00 0.000000000000e+00 7.450580596924e-09 6.200000000000e+01
    3.240060000000e+05 4.000000000000e+00
30 18  7  4 20  0  0.0 5.462113767862e-05-4.661160346586e-12 0.000000000000e+00
    1.170000000000e+02 1.662500000000e+01 4.986279127112e-09 1.461280832555e+00
    9.480863809586e-07 3.552610287443e-03 5.699694156647e-06 5.153717807770e+03
    3.312000000000e+05-3.911554813385e-08-1.883511152485e-01 5.029141902924e-08
    9.440430973557e-01 2.609375000000e+02-3.037443290619e+00-8.340347408947e-09
   -1.575065607805e-10 1.000000000000e+00 2.008000000000e+03 0.000000000000e+00
    2.400000000000e+00 0.000000000000e+00 3.725290298462e-09 1.170000000000e+02
    3.240060000000e+05 4.000000000000e+00
18 18  7  4 20  0  0.0 2.962723374367e-05 4.547473508865e-12 0.000000000000e+00
    9.800000000000e+01-2.837500000000e+01 5.026995108810e-09 1.831594976711e+00
   -1.834705471992e-06 1.474666479044e-02 4.384666681290e-06 5.153644134521e+03
    3.312000000000e+05-4.656612873077e-08 2.860037668460e+00-3.241002559662e-07
    9.503795456142e-01 2.890312500000e+02 1.318518478341e+00-8.342133197618e-09
    4.214461263514e-11 1.000000000000e+00 2.008000000000e+03 0.000000000000e+00
    3.400000000000e+00 0.000000000000e+00-6.984919309616e-09 9.800000000000e+01
    3.240060000000e+05 4.000000000000e+00
